start=new Date('2022-02-04T00:00:00.000Z').valueOf();
sats=[{"GP_ID":"195212188","CLASSIFICATION_TYPE":"U","BSTAR":"0.00044684000000","PERIOD":"91.533","REF_FRAME":"TEME","OBJECT_NAME":"STARLINK-3324","EPHEMERIS_TYPE":"0","REV_AT_EPOCH":"571","ECCENTRICITY":"0.00016730","OBJECT_ID":"2022-001M","TIME_SYSTEM":"UTC","MEAN_ELEMENT_THEORY":"SGP4","SEMIMAJOR_AXIS":"6727.902","MEAN_MOTION_DOT":"0.00062554","COUNTRY_CODE":"US","ELEMENT_SET_NO":"999","APOAPSIS":"350.893","EPOCH":"2022-02-03T22:00:01.999584","MEAN_MOTION":"15.73197549","TLE_LINE1":"1 50814U 22001M   22034.91668981  .00062554  00000-0  44684-3 0  9993","CENTER_NAME":"EARTH","RCS_SIZE":"LARGE","TLE_LINE2":"2 50814  53.2159  60.3816 0001673  32.3354 239.9102 15.73197549  5716","LAUNCH_DATE":"2022-01-06","DECAY_DATE":null,"INCLINATION":"53.2159","MEAN_MOTION_DDOT":"0.0000000000000","OBJECT_TYPE":"PAYLOAD","NORAD_CAT_ID":"50814","ARG_OF_PERICENTER":"32.3354","PERIAPSIS":"348.642","RA_OF_ASC_NODE":"60.3816","MEAN_ANOMALY":"239.9102","SITE":"AFETR","FILE":"3291228"},{"DECAY_DATE":null,"LAUNCH_DATE":"2022-01-06","INCLINATION":"53.2150","RCS_SIZE":"LARGE","CENTER_NAME":"EARTH","TLE_LINE2":"2 50815  53.2150  62.8247 0002029  38.6047 321.5118 15.73197912  4377","MEAN_ANOMALY":"321.5118","FILE":"3291268","SITE":"AFETR","OBJECT_TYPE":"PAYLOAD","NORAD_CAT_ID":"50815","MEAN_MOTION_DDOT":"0.0000000000000","ARG_OF_PERICENTER":"38.6047","RA_OF_ASC_NODE":"62.8247","PERIAPSIS":"348.401","OBJECT_NAME":"STARLINK-3234","EPHEMERIS_TYPE":"0","GP_ID":"195237888","CLASSIFICATION_TYPE":"U","REF_FRAME":"TEME","PERIOD":"91.533","BSTAR":"0.00034218000000","COUNTRY_CODE":"US","ELEMENT_SET_NO":"999","MEAN_MOTION_DOT":"0.00047673","TLE_LINE1":"1 50815U 22001N   22034.42435548  .00047673  00000-0  34218-3 0  9998","MEAN_MOTION":"15.73197912","EPOCH":"2022-02-03T10:11:04.313472","APOAPSIS":"351.131","OBJECT_ID":"2022-001N","ECCENTRICITY":"0.00020290","REV_AT_EPOCH":"437","SEMIMAJOR_AXIS":"6727.901","TIME_SYSTEM":"UTC","MEAN_ELEMENT_THEORY":"SGP4"},{"BSTAR":"0.00008418800000","PERIOD":"91.532","REF_FRAME":"TEME","CLASSIFICATION_TYPE":"U","GP_ID":"195208639","EPHEMERIS_TYPE":"0","OBJECT_NAME":"STARLINK-3342","TIME_SYSTEM":"UTC","MEAN_ELEMENT_THEORY":"SGP4","SEMIMAJOR_AXIS":"6727.843","REV_AT_EPOCH":"566","ECCENTRICITY":"0.00019180","OBJECT_ID":"2022-001P","APOAPSIS":"350.999","EPOCH":"2022-02-03T13:12:40.773888","MEAN_MOTION":"15.73218135","TLE_LINE1":"1 50816U 22001P   22034.55047192  .00011220  00000-0  84188-4 0  9998","MEAN_MOTION_DOT":"0.00011220","COUNTRY_CODE":"US","ELEMENT_SET_NO":"999","TLE_LINE2":"2 50816  53.2143  62.1875 0001918  43.0813 317.0357 15.73218135  5666","CENTER_NAME":"EARTH","RCS_SIZE":"LARGE","INCLINATION":"53.2143","DECAY_DATE":null,"LAUNCH_DATE":"2022-01-06","PERIAPSIS":"348.418","RA_OF_ASC_NODE":"62.1875","NORAD_CAT_ID":"50816","OBJECT_TYPE":"PAYLOAD","MEAN_MOTION_DDOT":"0.0000000000000","ARG_OF_PERICENTER":"43.0813","SITE":"AFETR","FILE":"3291047","MEAN_ANOMALY":"317.0357"},{"COUNTRY_CODE":"US","MEAN_MOTION_DOT":"0.00049073","ELEMENT_SET_NO":"999","TLE_LINE1":"1 50817U 22001Q   22034.42421998  .00049073  00000-0  35134-3 0  9998","MEAN_MOTION":"15.73245449","EPOCH":"2022-02-03T10:10:52.606272","APOAPSIS":"350.723","ECCENTRICITY":"0.00016230","OBJECT_ID":"2022-001Q","REV_AT_EPOCH":"437","SEMIMAJOR_AXIS":"6727.766","TIME_SYSTEM":"UTC","MEAN_ELEMENT_THEORY":"SGP4","OBJECT_NAME":"STARLINK-3341","EPHEMERIS_TYPE":"0","GP_ID":"195238272","CLASSIFICATION_TYPE":"U","REF_FRAME":"TEME","PERIOD":"91.531","BSTAR":"0.00035134000000","MEAN_ANOMALY":"326.3955","FILE":"3291268","SITE":"AFETR","ARG_OF_PERICENTER":"33.7168","OBJECT_TYPE":"PAYLOAD","MEAN_MOTION_DDOT":"0.0000000000000","NORAD_CAT_ID":"50817","RA_OF_ASC_NODE":"62.8231","PERIAPSIS":"348.539","LAUNCH_DATE":"2022-01-06","DECAY_DATE":null,"INCLINATION":"53.2136","RCS_SIZE":"LARGE","CENTER_NAME":"EARTH","TLE_LINE2":"2 50817  53.2136  62.8231 0001623  33.7168 326.3955 15.73245449  4376"},{"REV_AT_EPOCH":"439","ECCENTRICITY":"0.00021720","OBJECT_ID":"2022-001R","MEAN_ELEMENT_THEORY":"SGP4","TIME_SYSTEM":"UTC","SEMIMAJOR_AXIS":"6727.735","ELEMENT_SET_NO":"999","COUNTRY_CODE":"US","MEAN_MOTION_DOT":"0.00057642","APOAPSIS":"351.062","TLE_LINE1":"1 50818U 22001R   22034.55071166  .00057642  00000-0  41130-3 0  9995","MEAN_MOTION":"15.73256008","EPOCH":"2022-02-03T13:13:01.487424","CLASSIFICATION_TYPE":"U","GP_ID":"195262215","PERIOD":"91.530","BSTAR":"0.00041130000000","REF_FRAME":"TEME","OBJECT_NAME":"STARLINK-3336","EPHEMERIS_TYPE":"0","MEAN_MOTION_DDOT":"0.0000000000000","OBJECT_TYPE":"PAYLOAD","NORAD_CAT_ID":"50818","ARG_OF_PERICENTER":"26.2013","RA_OF_ASC_NODE":"62.1891","PERIAPSIS":"348.139","MEAN_ANOMALY":"333.9117","SITE":"AFETR","FILE":"3291273","CENTER_NAME":"EARTH","RCS_SIZE":"LARGE","TLE_LINE2":"2 50818  53.2147  62.1891 0002172  26.2013 333.9117 15.73256008  4399","LAUNCH_DATE":"2022-01-06","DECAY_DATE":null,"INCLINATION":"53.2147"},{"GP_ID":"195238196","CLASSIFICATION_TYPE":"U","BSTAR":"0.00013308000000","PERIOD":"91.531","REF_FRAME":"TEME","OBJECT_NAME":"STARLINK-3327","EPHEMERIS_TYPE":"0","REV_AT_EPOCH":"436","ECCENTRICITY":"0.00020040","OBJECT_ID":"2022-001S","MEAN_ELEMENT_THEORY":"SGP4","TIME_SYSTEM":"UTC","SEMIMAJOR_AXIS":"6727.782","COUNTRY_CODE":"US","ELEMENT_SET_NO":"999","MEAN_MOTION_DOT":"0.00018129","APOAPSIS":"350.995","MEAN_MOTION":"15.73239707","EPOCH":"2022-02-03T08:38:52.508544","TLE_LINE1":"1 50819U 22001S   22034.36032996  .00018129  00000-0  13308-3 0  9996","RCS_SIZE":"LARGE","CENTER_NAME":"EARTH","TLE_LINE2":"2 50819  53.2153  63.1324 0002004  27.7882 332.3245 15.73239707  4362","LAUNCH_DATE":"2022-01-06","DECAY_DATE":null,"INCLINATION":"53.2153","OBJECT_TYPE":"PAYLOAD","MEAN_MOTION_DDOT":"0.0000000000000","ARG_OF_PERICENTER":"27.7882","NORAD_CAT_ID":"50819","PERIAPSIS":"348.299","RA_OF_ASC_NODE":"63.1324","MEAN_ANOMALY":"332.3245","SITE":"AFETR","FILE":"3291268"},{"PERIAPSIS":"348.160","RA_OF_ASC_NODE":"62.1884","MEAN_MOTION_DDOT":"0.0000000000000","OBJECT_TYPE":"PAYLOAD","NORAD_CAT_ID":"50820","ARG_OF_PERICENTER":"29.9522","SITE":"AFETR","FILE":"3291023","MEAN_ANOMALY":"330.1624","TLE_LINE2":"2 50820  53.2151  62.1884 0002210  29.9522 330.1624 15.73239910  5663","CENTER_NAME":"EARTH","RCS_SIZE":"LARGE","INCLINATION":"53.2151","LAUNCH_DATE":"2022-01-06","DECAY_DATE":null,"MEAN_ELEMENT_THEORY":"SGP4","TIME_SYSTEM":"UTC","SEMIMAJOR_AXIS":"6727.781","REV_AT_EPOCH":"566","ECCENTRICITY":"0.00022100","OBJECT_ID":"2022-001T","APOAPSIS":"351.133","EPOCH":"2022-02-03T13:12:30.310848","MEAN_MOTION":"15.73239910","TLE_LINE1":"1 50820U 22001T   22034.55035082  .00045260  00000-0  32459-3 0  9992","COUNTRY_CODE":"US","ELEMENT_SET_NO":"999","MEAN_MOTION_DOT":"0.00045260","BSTAR":"0.00032459000000","PERIOD":"91.531","REF_FRAME":"TEME","CLASSIFICATION_TYPE":"U","GP_ID":"195207992","EPHEMERIS_TYPE":"0","OBJECT_NAME":"STARLINK-3339"},{"MEAN_ANOMALY":"335.7689","SITE":"AFETR","FILE":"3291023","MEAN_MOTION_DDOT":"0.0000000000000","OBJECT_TYPE":"PAYLOAD","ARG_OF_PERICENTER":"24.3411","NORAD_CAT_ID":"50821","RA_OF_ASC_NODE":"62.1856","PERIAPSIS":"348.571","DECAY_DATE":null,"LAUNCH_DATE":"2022-01-06","INCLINATION":"53.2145","CENTER_NAME":"EARTH","RCS_SIZE":"LARGE","TLE_LINE2":"2 50821  53.2145  62.1856 0001686  24.3411 335.7689 15.73219280  5646","COUNTRY_CODE":"US","MEAN_MOTION_DOT":"0.00005181","ELEMENT_SET_NO":"999","APOAPSIS":"350.840","TLE_LINE1":"1 50821U 22001U   22034.54989959  .00005181  00000-0  41280-4 0  9994","EPOCH":"2022-02-03T13:11:51.324576","MEAN_MOTION":"15.73219280","REV_AT_EPOCH":"564","OBJECT_ID":"2022-001U","ECCENTRICITY":"0.00016860","MEAN_ELEMENT_THEORY":"SGP4","TIME_SYSTEM":"UTC","SEMIMAJOR_AXIS":"6727.840","OBJECT_NAME":"STARLINK-3346","EPHEMERIS_TYPE":"0","CLASSIFICATION_TYPE":"U","GP_ID":"195207987","PERIOD":"91.532","BSTAR":"0.00004128000000","REF_FRAME":"TEME"},{"DECAY_DATE":null,"LAUNCH_DATE":"2022-01-06","INCLINATION":"53.2171","CENTER_NAME":"EARTH","RCS_SIZE":"LARGE","TLE_LINE2":"2 50822  53.2171  63.1309 0002116  36.9771 323.1394 15.73236292  4361","MEAN_ANOMALY":"323.1394","SITE":"AFETR","FILE":"3291268","NORAD_CAT_ID":"50822","OBJECT_TYPE":"PAYLOAD","MEAN_MOTION_DDOT":"0.0000000000000","ARG_OF_PERICENTER":"36.9771","RA_OF_ASC_NODE":"63.1309","PERIAPSIS":"348.233","OBJECT_NAME":"STARLINK-3343","EPHEMERIS_TYPE":"0","GP_ID":"195238042","CLASSIFICATION_TYPE":"U","PERIOD":"91.531","BSTAR":"0.00012095000000","REF_FRAME":"TEME","COUNTRY_CODE":"US","ELEMENT_SET_NO":"999","MEAN_MOTION_DOT":"0.00016414","APOAPSIS":"351.080","TLE_LINE1":"1 50822U 22001V   22034.35953615  .00016414  00000-0  12095-3 0  9996","MEAN_MOTION":"15.73236292","EPOCH":"2022-02-03T08:37:43.923360","REV_AT_EPOCH":"436","ECCENTRICITY":"0.00021160","OBJECT_ID":"2022-001V","MEAN_ELEMENT_THEORY":"SGP4","TIME_SYSTEM":"UTC","SEMIMAJOR_AXIS":"6727.792"},{"PERIAPSIS":"348.248","RA_OF_ASC_NODE":"62.1927","OBJECT_TYPE":"PAYLOAD","NORAD_CAT_ID":"50823","MEAN_MOTION_DDOT":"0.0000000000000","ARG_OF_PERICENTER":"21.5080","SITE":"AFETR","FILE":"3291309","MEAN_ANOMALY":"338.6028","TLE_LINE2":"2 50823  53.2145  62.1927 0002111  21.5080 338.6028 15.73232094  5661","RCS_SIZE":"LARGE","CENTER_NAME":"EARTH","INCLINATION":"53.2145","DECAY_DATE":null,"LAUNCH_DATE":"2022-01-06","TIME_SYSTEM":"UTC","MEAN_ELEMENT_THEORY":"SGP4","SEMIMAJOR_AXIS":"6727.804","REV_AT_EPOCH":"566","OBJECT_ID":"2022-001W","ECCENTRICITY":"0.00021110","APOAPSIS":"351.089","EPOCH":"2022-02-03T13:13:38.471808","MEAN_MOTION":"15.73232094","TLE_LINE1":"1 50823U 22001W   22034.55113972  .00011711  00000-0  87626-4 0  9991","ELEMENT_SET_NO":"999","COUNTRY_CODE":"US","MEAN_MOTION_DOT":"0.00011711","BSTAR":"0.00008762600000","PERIOD":"91.531","REF_FRAME":"TEME","CLASSIFICATION_TYPE":"U","GP_ID":"195264347","EPHEMERIS_TYPE":"0","OBJECT_NAME":"STARLINK-3334"}];
